<?xml version="1.0" encoding="utf-8"?>
<q:quakeml xmlns:q="http://quakeml.org/xmlns/quakeml/1.2" xmlns="http://quakeml.org/xmlns/bed/1.2" xmlns:catalog="http://anss.org/xmlns/catalog/0.1">
  <eventParameters public_ID="scratch">
      <event ID="548780">
         <type>earthquake</type>
         <origin>
            <time>
               <value>2019-07-01T00:14:54.177Z</value>
            </time>
            <latitude>
               <value>47.9532</value>
            </latitude>
            <longitude>
               <value>-129.0776</value>
            </longitude>
            <depth>
               <value>1.9903</value>
               <uncertainty>0.0057807</uncertainty>
            </depth>
            <depthType>operator assigned</depthType>
            <arrival publicID="quakeml:/Assoc/NV/548780p1">
               <pickID>quakeml:/Arrival/NV/548780p1</pickID>
               <phase>S</phase>
               <timeResidual>-0.4478</timeResidual>
               <timeWeight>0.25</timeWeight>
            </arrival>
            <arrival publicID="quakeml:/Assoc/NV/548780p2">
               <pickID>quakeml:/Arrival/NV/548780p2</pickID>
               <phase>P</phase>
               <timeResidual>-0.0176</timeResidual>
               <timeWeight>1</timeWeight>
            </arrival>
            <arrival publicID="quakeml:/Assoc/NV/548780p3">
               <pickID>quakeml:/Arrival/NV/548780p3</pickID>
               <phase>S</phase>
               <timeResidual>-0.0955</timeResidual>
               <timeWeight>0.125</timeWeight>
            </arrival>
            <arrival publicID="quakeml:/Assoc/NV/548780p4">
               <pickID>quakeml:/Arrival/NV/548780p4</pickID>
               <phase>P</phase>
               <timeResidual>0.0592</timeResidual>
               <timeWeight>1</timeWeight>
            </arrival>
            <arrival publicID="quakeml:/Assoc/NV/548780p5">
               <pickID>quakeml:/Arrival/NV/548780p5</pickID>
               <phase>S</phase>
               <timeResidual>-0.195</timeResidual>
               <timeWeight>0.25</timeWeight>
            </arrival>
         </origin>
         <pick publicID="quakeml:/Arrival/NV/548780p1">
            <time>
               <value>2019-07-01T00:14:54.930Z</value>
            </time>
            <evaluationMode>automatic</evaluationMode>
            <waveformID channelCode="CN2" locationCode="W3" networkCode="NV" stationCode="KEMF"/>
         </pick>
         <pick publicID="quakeml:/Arrival/NV/548780p2">
            <time>
               <value>2019-07-01T00:14:54.775Z</value>
            </time>
            <evaluationMode>automatic</evaluationMode>
            <waveformID channelCode="EHZ" locationCode="--" networkCode="NV" stationCode="NCHR"/>
         </pick>
         <pick publicID="quakeml:/Arrival/NV/548780p3">
            <time>
               <value>2019-07-01T00:14:55.400Z</value>
            </time>
            <evaluationMode>automatic</evaluationMode>
            <waveformID channelCode="EHE" locationCode="--" networkCode="NV" stationCode="NCHR"/>
         </pick>
         <pick publicID="quakeml:/Arrival/NV/548780p4">
            <time>
               <value>2019-07-01T00:14:55.065Z</value>
            </time>
            <evaluationMode>automatic</evaluationMode>
            <waveformID channelCode="HHZ" locationCode="--" networkCode="NV" stationCode="ENWF"/>
         </pick>
         <pick publicID="quakeml:/Arrival/NV/548780p5">
            <time>
               <value>2019-07-01T00:14:55.605Z</value>
            </time>
            <evaluationMode>automatic</evaluationMode>
            <waveformID channelCode="HHE" locationCode="--" networkCode="NV" stationCode="ENWF"/>
         </pick>
         <magnitude publicID="quakeml:/Mag/NV/548780">
            <mag>
               <value>0.48229</value>
            </mag>
            <type>Mw</type>
            <evaluationMode>automatic</evaluationMode>
         </magnitude>
      </event>
      <event ID="548782">
         <type>earthquake</type>
         <origin>
            <time>
               <value>2019-07-01T01:11:54.065Z</value>
            </time>
            <latitude>
               <value>47.9639</value>
            </latitude>
            <longitude>
               <value>-129.083</value>
            </longitude>
            <depth>
               <value>0.33422</value>
               <uncertainty>0.21227</uncertainty>
            </depth>
            <depthType>from location</depthType>
            <arrival publicID="quakeml:/Assoc/NV/548782p1">
               <pickID>quakeml:/Arrival/NV/548782p1</pickID>
               <phase>P</phase>
               <timeResidual>0.0199</timeResidual>
               <timeWeight>1</timeWeight>
            </arrival>
            <arrival publicID="quakeml:/Assoc/NV/548782p2">
               <pickID>quakeml:/Arrival/NV/548782p2</pickID>
               <phase>S</phase>
               <timeResidual>-0.1206</timeResidual>
               <timeWeight>0.125</timeWeight>
            </arrival>
            <arrival publicID="quakeml:/Assoc/NV/548782p3">
               <pickID>quakeml:/Arrival/NV/548782p3</pickID>
               <phase>P</phase>
               <timeResidual>-0.0669</timeResidual>
               <timeWeight>0.75</timeWeight>
            </arrival>
            <arrival publicID="quakeml:/Assoc/NV/548782p4">
               <pickID>quakeml:/Arrival/NV/548782p4</pickID>
               <phase>S</phase>
               <timeResidual>0.4016</timeResidual>
               <timeWeight>0.125</timeWeight>
            </arrival>
            <arrival publicID="quakeml:/Assoc/NV/548782p5">
               <pickID>quakeml:/Arrival/NV/548782p5</pickID>
               <phase>S</phase>
               <timeResidual>0.0009</timeResidual>
               <timeWeight>0.125</timeWeight>
            </arrival>
            <arrival publicID="quakeml:/Assoc/NV/548782p6">
               <pickID>quakeml:/Arrival/NV/548782p6</pickID>
               <phase>P</phase>
               <timeResidual>0.0211</timeResidual>
               <timeWeight>1</timeWeight>
            </arrival>
            <arrival publicID="quakeml:/Assoc/NV/548782p7">
               <pickID>quakeml:/Arrival/NV/548782p7</pickID>
               <phase>S</phase>
               <timeResidual>-0.1239</timeResidual>
               <timeWeight>0.25</timeWeight>
            </arrival>
         </origin>
         <pick publicID="quakeml:/Arrival/NV/548782p1">
            <time>
               <value>2019-07-01T01:11:54.440Z</value>
            </time>
            <evaluationMode>automatic</evaluationMode>
            <waveformID channelCode="EHZ" locationCode="--" networkCode="NV" stationCode="NCHR"/>
         </pick>
         <pick publicID="quakeml:/Arrival/NV/548782p2">
            <time>
               <value>2019-07-01T01:11:55.000Z</value>
            </time>
            <evaluationMode>automatic</evaluationMode>
            <waveformID channelCode="EHE" locationCode="--" networkCode="NV" stationCode="NCHR"/>
         </pick>
         <pick publicID="quakeml:/Arrival/NV/548782p3">
            <time>
               <value>2019-07-01T01:11:54.240Z</value>
            </time>
            <evaluationMode>automatic</evaluationMode>
            <waveformID channelCode="HH1" locationCode="--" networkCode="NV" stationCode="ENHR"/>
         </pick>
         <pick publicID="quakeml:/Arrival/NV/548782p4">
            <time>
               <value>2019-07-01T01:11:55.260Z</value>
            </time>
            <evaluationMode>automatic</evaluationMode>
            <waveformID channelCode="HH2" locationCode="--" networkCode="NV" stationCode="ENHR"/>
         </pick>
         <pick publicID="quakeml:/Arrival/NV/548782p5">
            <time>
               <value>2019-07-01T01:11:55.514Z</value>
            </time>
            <evaluationMode>automatic</evaluationMode>
            <waveformID channelCode="CN2" locationCode="W3" networkCode="NV" stationCode="KEMF"/>
         </pick>
         <pick publicID="quakeml:/Arrival/NV/548782p6">
            <time>
               <value>2019-07-01T01:11:54.890Z</value>
            </time>
            <evaluationMode>automatic</evaluationMode>
            <waveformID channelCode="HHZ" locationCode="--" networkCode="NV" stationCode="ENWF"/>
         </pick>
         <pick publicID="quakeml:/Arrival/NV/548782p7">
            <time>
               <value>2019-07-01T01:11:55.690Z</value>
            </time>
            <evaluationMode>automatic</evaluationMode>
            <waveformID channelCode="HHE" locationCode="--" networkCode="NV" stationCode="ENWF"/>
         </pick>
         <magnitude publicID="quakeml:/Mag/NV/548782">
            <mag>
               <value>0.22018</value>
            </mag>
            <type>Mw</type>
            <evaluationMode>automatic</evaluationMode>
         </magnitude>
      </event>
      <event ID="548784">
         <type>earthquake</type>
         <origin>
            <time>
               <value>2019-07-01T01:44:44.824Z</value>
            </time>
            <latitude>
               <value>47.9484</value>
            </latitude>
            <longitude>
               <value>-129.122</value>
            </longitude>
            <depth>
               <value>1.9903</value>
               <uncertainty>0.0058081</uncertainty>
            </depth>
            <depthType>operator assigned</depthType>
            <arrival publicID="quakeml:/Assoc/NV/548784p1">
               <pickID>quakeml:/Arrival/NV/548784p1</pickID>
               <phase>P</phase>
               <timeResidual>-0.0104</timeResidual>
               <timeWeight>1</timeWeight>
            </arrival>
            <arrival publicID="quakeml:/Assoc/NV/548784p2">
               <pickID>quakeml:/Arrival/NV/548784p2</pickID>
               <phase>S</phase>
               <timeResidual>-0.3283</timeResidual>
               <timeWeight>0.125</timeWeight>
            </arrival>
            <arrival publicID="quakeml:/Assoc/NV/548784p3">
               <pickID>quakeml:/Arrival/NV/548784p3</pickID>
               <phase>P</phase>
               <timeResidual>0.0422</timeResidual>
               <timeWeight>0.75</timeWeight>
            </arrival>
            <arrival publicID="quakeml:/Assoc/NV/548784p4">
               <pickID>quakeml:/Arrival/NV/548784p4</pickID>
               <phase>S</phase>
               <timeResidual>-0.2323</timeResidual>
               <timeWeight>0.1875</timeWeight>
            </arrival>
         </origin>
         <pick publicID="quakeml:/Arrival/NV/548784p1">
            <time>
               <value>2019-07-01T01:44:45.290Z</value>
            </time>
            <evaluationMode>automatic</evaluationMode>
            <waveformID channelCode="HHZ" locationCode="--" networkCode="NV" stationCode="ENWF"/>
         </pick>
         <pick publicID="quakeml:/Arrival/NV/548784p2">
            <time>
               <value>2019-07-01T01:44:45.670Z</value>
            </time>
            <evaluationMode>automatic</evaluationMode>
            <waveformID channelCode="CN2" locationCode="W3" networkCode="NV" stationCode="KEMF"/>
         </pick>
         <pick publicID="quakeml:/Arrival/NV/548784p3">
            <time>
               <value>2019-07-01T01:44:45.750Z</value>
            </time>
            <evaluationMode>automatic</evaluationMode>
            <waveformID channelCode="EHZ" locationCode="--" networkCode="NV" stationCode="NCHR"/>
         </pick>
         <pick publicID="quakeml:/Arrival/NV/548784p4">
            <time>
               <value>2019-07-01T01:44:46.415Z</value>
            </time>
            <evaluationMode>automatic</evaluationMode>
            <waveformID channelCode="EHE" locationCode="--" networkCode="NV" stationCode="NCHR"/>
         </pick>
         <magnitude publicID="quakeml:/Mag/NV/548784">
            <mag>
               <value>0.19348</value>
            </mag>
            <type>Mw</type>
            <evaluationMode>automatic</evaluationMode>
         </magnitude>
      </event>
      <event ID="548785">
         <type>earthquake</type>
         <origin>
            <time>
               <value>2019-07-01T01:47:46.824Z</value>
            </time>
            <latitude>
               <value>47.9529</value>
            </latitude>
            <longitude>
               <value>-129.0832</value>
            </longitude>
            <depth>
               <value>1.9903</value>
               <uncertainty>0.0057484</uncertainty>
            </depth>
            <depthType>operator assigned</depthType>
            <arrival publicID="quakeml:/Assoc/NV/548785p1">
               <pickID>quakeml:/Arrival/NV/548785p1</pickID>
               <phase>S</phase>
               <timeResidual>-0.3724</timeResidual>
               <timeWeight>0.1875</timeWeight>
            </arrival>
            <arrival publicID="quakeml:/Assoc/NV/548785p2">
               <pickID>quakeml:/Arrival/NV/548785p2</pickID>
               <phase>S</phase>
               <timeResidual>0.207</timeResidual>
               <timeWeight>0.125</timeWeight>
            </arrival>
            <arrival publicID="quakeml:/Assoc/NV/548785p3">
               <pickID>quakeml:/Arrival/NV/548785p3</pickID>
               <phase>P</phase>
               <timeResidual>0.0194</timeResidual>
               <timeWeight>1</timeWeight>
            </arrival>
            <arrival publicID="quakeml:/Assoc/NV/548785p4">
               <pickID>quakeml:/Arrival/NV/548785p4</pickID>
               <phase>S</phase>
               <timeResidual>-0.0663</timeResidual>
               <timeWeight>0.1875</timeWeight>
            </arrival>
            <arrival publicID="quakeml:/Assoc/NV/548785p5">
               <pickID>quakeml:/Arrival/NV/548785p5</pickID>
               <phase>S</phase>
               <timeResidual>-0.4588</timeResidual>
               <timeWeight>0.125</timeWeight>
            </arrival>
         </origin>
         <pick publicID="quakeml:/Arrival/NV/548785p1">
            <time>
               <value>2019-07-01T01:47:47.560Z</value>
            </time>
            <evaluationMode>automatic</evaluationMode>
            <waveformID channelCode="CN2" locationCode="W3" networkCode="NV" stationCode="KEMF"/>
         </pick>
         <pick publicID="quakeml:/Arrival/NV/548785p2">
            <time>
               <value>2019-07-01T01:47:48.360Z</value>
            </time>
            <evaluationMode>automatic</evaluationMode>
            <waveformID channelCode="EHE" locationCode="--" networkCode="NV" stationCode="NCHR"/>
         </pick>
         <pick publicID="quakeml:/Arrival/NV/548785p3">
            <time>
               <value>2019-07-01T01:47:47.605Z</value>
            </time>
            <evaluationMode>automatic</evaluationMode>
            <waveformID channelCode="HHZ" locationCode="--" networkCode="NV" stationCode="ENWF"/>
         </pick>
         <pick publicID="quakeml:/Arrival/NV/548785p4">
            <time>
               <value>2019-07-01T01:47:48.270Z</value>
            </time>
            <evaluationMode>automatic</evaluationMode>
            <waveformID channelCode="HHE" locationCode="--" networkCode="NV" stationCode="ENWF"/>
         </pick>
         <pick publicID="quakeml:/Arrival/NV/548785p5">
            <time>
               <value>2019-07-01T01:47:47.585Z</value>
            </time>
            <evaluationMode>automatic</evaluationMode>
            <waveformID channelCode="HH2" locationCode="--" networkCode="NV" stationCode="ENHR"/>
         </pick>
         <magnitude publicID="quakeml:/Mag/NV/548785">
            <mag>
               <value>0.22543</value>
            </mag>
            <type>Mw</type>
            <evaluationMode>automatic</evaluationMode>
         </magnitude>
      </event>
      <event ID="548786">
         <type>earthquake</type>
         <origin>
            <time>
               <value>2019-07-01T02:57:22.144Z</value>
            </time>
            <latitude>
               <value>47.9593</value>
            </latitude>
            <longitude>
               <value>-129.0704</value>
            </longitude>
            <depth>
               <value>0.53187</value>
               <uncertainty>0.88904</uncertainty>
            </depth>
            <depthType>from location</depthType>
            <arrival publicID="quakeml:/Assoc/NV/548786p1">
               <pickID>quakeml:/Arrival/NV/548786p1</pickID>
               <phase>P</phase>
               <timeResidual>-0.0048</timeResidual>
               <timeWeight>1</timeWeight>
            </arrival>
            <arrival publicID="quakeml:/Assoc/NV/548786p2">
               <pickID>quakeml:/Arrival/NV/548786p2</pickID>
               <phase>S</phase>
               <timeResidual>0.1718</timeResidual>
               <timeWeight>0.125</timeWeight>
            </arrival>
            <arrival publicID="quakeml:/Assoc/NV/548786p3">
               <pickID>quakeml:/Arrival/NV/548786p3</pickID>
               <phase>P</phase>
               <timeResidual>0.0051</timeResidual>
               <timeWeight>1</timeWeight>
            </arrival>
            <arrival publicID="quakeml:/Assoc/NV/548786p4">
               <pickID>quakeml:/Arrival/NV/548786p4</pickID>
               <phase>S</phase>
               <timeResidual>-0.048</timeResidual>
               <timeWeight>0.25</timeWeight>
            </arrival>
         </origin>
         <pick publicID="quakeml:/Arrival/NV/548786p1">
            <time>
               <value>2019-07-01T02:57:22.650Z</value>
            </time>
            <evaluationMode>automatic</evaluationMode>
            <waveformID channelCode="EHZ" locationCode="--" networkCode="NV" stationCode="NCHR"/>
         </pick>
         <pick publicID="quakeml:/Arrival/NV/548786p2">
            <time>
               <value>2019-07-01T02:57:23.520Z</value>
            </time>
            <evaluationMode>automatic</evaluationMode>
            <waveformID channelCode="EHE" locationCode="--" networkCode="NV" stationCode="NCHR"/>
         </pick>
         <pick publicID="quakeml:/Arrival/NV/548786p3">
            <time>
               <value>2019-07-01T02:57:23.120Z</value>
            </time>
            <evaluationMode>automatic</evaluationMode>
            <waveformID channelCode="HHZ" locationCode="--" networkCode="NV" stationCode="ENWF"/>
         </pick>
         <pick publicID="quakeml:/Arrival/NV/548786p4">
            <time>
               <value>2019-07-01T02:57:23.990Z</value>
            </time>
            <evaluationMode>automatic</evaluationMode>
            <waveformID channelCode="HHE" locationCode="--" networkCode="NV" stationCode="ENWF"/>
         </pick>
         <magnitude publicID="quakeml:/Mag/NV/548786">
            <mag>
               <value>0.60742</value>
            </mag>
            <type>Mw</type>
            <evaluationMode>automatic</evaluationMode>
         </magnitude>
      </event>
      <event ID="548787">
         <type>earthquake</type>
         <origin>
            <time>
               <value>2019-07-01T03:05:49.256Z</value>
            </time>
            <latitude>
               <value>47.9626</value>
            </latitude>
            <longitude>
               <value>-129.0692</value>
            </longitude>
            <depth>
               <value>0.61813</value>
               <uncertainty>0.94552</uncertainty>
            </depth>
            <depthType>from location</depthType>
            <arrival publicID="quakeml:/Assoc/NV/548787p1">
               <pickID>quakeml:/Arrival/NV/548787p1</pickID>
               <phase>P</phase>
               <timeResidual>-0.0023</timeResidual>
               <timeWeight>1</timeWeight>
            </arrival>
            <arrival publicID="quakeml:/Assoc/NV/548787p2">
               <pickID>quakeml:/Arrival/NV/548787p2</pickID>
               <phase>S</phase>
